0 LEMUR 2 REMY-COLTON
1 43884U 18111J   22014.75162499  .00002290  00000-0  19701-3 0  9995
2 43884  97.6841 285.2566 0012656 111.5000 248.7573 14.98313409164779
0 LEMUR 2 REMY-COLTON
1 43884U 18111J   22014.81840780  .00002392  00000-0  20562-3 0  9998
2 43884  97.6841 285.3224 0012664 111.2939 248.9637 14.98314413164788
0 LEMUR 2 REMY-COLTON
1 43884U 18111J   22015.08554107  .00002446  00000-0  21011-3 0  9993
2 43884  97.6842 285.5855 0012699 110.4534 249.8054 14.98315770164826
0 LEMUR 2 REMY-COLTON
1 43884U 18111J   22015.41945816  .00003123  00000-0  26681-3 0  9992
2 43884  97.6842 285.9140 0012828 109.3842 250.8768 14.98317881164874
0 LEMUR 2 REMY-COLTON
1 43884U 18111J   22015.55302470  .00003154  00000-0  26944-3 0  9996
2 43884  97.6843 286.0456 0012837 108.9636 251.2978 14.98318473164891
0 LEMUR 2 REMY-COLTON
1 43884U 18111J   22015.82015695  .00003453  00000-0  29444-3 0  9996
2 43884  97.6843 286.3086 0012861 108.1404 252.1220 14.98320823164932
0 LEMUR 2 REMY-COLTON
1 43884U 18111J   22015.82015695  .00003453  00000-0  29444-3 0  9996
2 43884  97.6843 286.3086 0012861 108.1404 252.1220 14.98320823164932
0 LEMUR 2 REMY-COLTON
1 43884U 18111J   22016.15407171  .00003867  00000-0  32912-3 0  9990
2 43884  97.6845 286.6374 0012942 107.0495 253.2147 14.98323542164981
0 LEMUR 2 REMY-COLTON
1 43884U 18111J   22016.42120259  .00004245  00000-0  36083-3 0  9993
2 43884  97.6845 286.9005 0012967 106.1971 254.0680 14.98326611165028
0 LEMUR 2 REMY-COLTON
1 43884U 18111J   22016.55476825  .00004055  00000-0  34483-3 0  9991
2 43884  97.6845 287.0321 0012978 105.7883 254.4771 14.98327012165043
0 LEMUR 2 REMY-COLTON
1 43884U 18111J   22016.82189886  .00004134  00000-0  35147-3 0  9995
2 43884  97.6846 287.2952 0013004 104.9564 255.3099 14.98329463165083
0 LEMUR 2 REMY-COLTON
1 43884U 18111J   22016.88868137  .00004329  00000-0  36776-3 0  9999
2 43884  97.6846 287.3609 0013015 104.7445 255.5221 14.98330512165098
0 LEMUR 2 REMY-COLTON
1 43884U 18111J   22017.08902898  .00004304  00000-0  36571-3 0  9991
2 43884  97.6846 287.5583 0013046 104.1098 256.1576 14.98332215165129
0 LEMUR 2 REMY-COLTON
1 43884U 18111J   22017.42294104  .00004110  00000-0  34940-3 0  9996
2 43884  97.6847 287.8872 0013084 103.0595 257.2089 14.98334627165171
0 LEMUR 2 REMY-COLTON
1 43884U 18111J   22017.55650607  .00003700  00000-0  31507-3 0  9994
2 43884  97.6847 288.0188 0013094 102.6522 257.6166 14.98334524165198
0 LEMUR 2 REMY-COLTON
1 43884U 18111J   22017.75685304  .00003811  00000-0  32430-3 0  9997
2 43884  97.6847 288.2162 0013081 102.0305 258.2385 14.98336125165224
0 LEMUR 2 REMY-COLTON
1 43884U 18111J   22017.89041747  .00003957  00000-0  33657-3 0  9992
2 43884  97.6848 288.3477 0013097 101.6094 258.6599 14.98337633165240
0 LEMUR 2 REMY-COLTON
1 43884U 18111J   22018.09076406  .00003868  00000-0  32909-3 0  9995
2 43884  97.6848 288.5451 0013122 100.9917 259.2783 14.98339137165275
0 LEMUR 2 REMY-COLTON
1 43884U 18111J   22018.49145624  .00003832  00000-0  32606-3 0  9993
2 43884  97.6848 288.9398 0013153  99.7766 260.4942 14.98342450165330
0 LEMUR 2 REMY-COLTON
1 43884U 18111J   22018.55823856  .00003657  00000-0  31138-3 0  9994
2 43884  97.6848 289.0055 0013156  99.5624 260.7086 14.98342205165347
0 LEMUR 2 REMY-COLTON
1 43884U 18111J   22018.82536635  .00003596  00000-0  30628-3 0  9995
2 43884  97.6849 289.2687 0013180  98.7280 261.5436 14.98344275165388
0 LEMUR 2 REMY-COLTON
1 43884U 18111J   22018.89214830  .00003870  00000-0  32918-3 0  9991
2 43884  97.6849 289.3345 0013184  98.5258 261.7459 14.98345549165390
0 LEMUR 2 REMY-COLTON
1 43884U 18111J   22019.09249387  .00003909  00000-0  33241-3 0  9992
2 43884  97.6849 289.5318 0013212  97.9015 262.3708 14.98347175165423
0 LEMUR 2 REMY-COLTON
1 43884U 18111J   22019.55996546  .00004368  00000-0  37080-3 0  9994
2 43884  97.6849 289.9923 0013276  96.4444 263.8291 14.98352066165494
0 LEMUR 2 REMY-COLTON
1 43884U 18111J   22019.76031025  .00004155  00000-0  35301-3 0  9997
2 43884  97.6850 290.1896 0013289  95.8112 264.4626 14.98353334165520
0 LEMUR 2 REMY-COLTON
1 43884U 18111J   22019.96065531  .00003841  00000-0  32672-3 0  9997
2 43884  97.6850 290.3870 0013305  95.1999 265.0742 14.98353701165556
0 LEMUR 2 REMY-COLTON
1 43884U 18111J   22020.09421830  .00003823  00000-0  32519-3 0  9991
2 43884  97.6850 290.5186 0013317  94.7560 265.5184 14.98354727165576
0 LEMUR 2 REMY-COLTON
1 43884U 18111J   22020.49490665  .00003551  00000-0  30239-3 0  9992
2 43884  97.6851 290.9133 0013319  93.5490 266.7256 14.98357042165637
0 LEMUR 2 REMY-COLTON
1 43884U 18111J   22020.49490665  .00003551  00000-0  30239-3 0  9992
2 43884  97.6851 290.9133 0013319  93.5490 266.7256 14.98357042165637
0 LEMUR 2 REMY-COLTON
1 43884U 18111J   22020.76203211  .00003422  00000-0  29157-3 0  9995
2 43884  97.6851 291.1765 0013324  92.7203 267.5545 14.98358320165674
0 LEMUR 2 REMY-COLTON
1 43884U 18111J   22020.76203211  .00003422  00000-0  29157-3 0  9995
2 43884  97.6851 291.1765 0013324  92.7203 267.5545 14.98358320165674
0 LEMUR 2 REMY-COLTON
1 43884U 18111J   22021.09593814  .00003103  00000-0  26488-3 0  9993
2 43884  97.6851 291.5054 0013347  91.7288 268.5463 14.98359924165723
0 LEMUR 2 REMY-COLTON
1 43884U 18111J   22021.42984401  .00003216  00000-0  27428-3 0  9996
2 43884  97.6851 291.8344 0013361  90.7107 269.5646 14.98362402165777
0 LEMUR 2 REMY-COLTON
1 43884U 18111J   22021.56340616  .00003099  00000-0  26446-3 0  9993
2 43884  97.6851 291.9659 0013361  90.3225 269.9529 14.98363019165795
0 LEMUR 2 REMY-COLTON
1 43884U 18111J   22021.83053020  .00003098  00000-0  26439-3 0  9994
2 43884  97.6852 292.2291 0013370  89.4648 270.8107 14.98364899165835
0 LEMUR 2 REMY-COLTON
1 43884U 18111J   22021.89731105  .00003069  00000-0  26196-3 0  9995
2 43884  97.6852 292.2949 0013375  89.2575 271.0180 14.98365338165841
0 LEMUR 2 REMY-COLTON
1 43884U 18111J   22021.96409203  .00003060  00000-0  26117-3 0  9998
2 43884  97.6852 292.3606 0013383  89.0438 271.2318 14.98365722165850
0 LEMUR 2 REMY-COLTON
1 43884U 18111J   22022.49833870  .00003167  00000-0  27011-3 0  9990
2 43884  97.6852 292.8869 0013400  87.4460 272.8297 14.98369630165937
0 LEMUR 2 REMY-COLTON
1 43884U 18111J   22022.56511960  .00003042  00000-0  25968-3 0  9992
2 43884  97.6852 292.9527 0013399  87.2440 273.0316 14.98369647165946
0 LEMUR 2 REMY-COLTON
1 43884U 18111J   22022.76546181  .00003012  00000-0  25715-3 0  9994
2 43884  97.6852 293.1501 0013404  86.6085 273.6670 14.98370885165974
0 LEMUR 2 REMY-COLTON
1 43884U 18111J   22022.89902315  .00002911  00000-0  24866-3 0  9996
2 43884  97.6853 293.2817 0013411  86.1939 274.0816 14.98371436165999
0 LEMUR 2 REMY-COLTON
1 43884U 18111J   22023.16614560  .00003069  00000-0  26190-3 0  9996
2 43884  97.6853 293.5448 0013421  85.4106 274.8650 14.98373663166035
0 LEMUR 2 REMY-COLTON
1 43884U 18111J   22023.43326787  .00003026  00000-0  25826-3 0  9995
2 43884  97.6853 293.8080 0013428  84.5753 275.7001 14.98375124166073
0 LEMUR 2 REMY-COLTON
1 43884U 18111J   22023.56682901  .00002881  00000-0  24612-3 0  9992
2 43884  97.6853 293.9395 0013428  84.1503 276.1250 14.98375443166099
0 LEMUR 2 REMY-COLTON
1 43884U 18111J   22023.76717034  .00002906  00000-0  24827-3 0  9996
2 43884  97.6853 294.1369 0013424  83.5357 276.7394 14.98376782166125
0 LEMUR 2 REMY-COLTON
1 43884U 18111J   22023.90073114  .00002728  00000-0  23334-3 0  9990
2 43884  97.6854 294.2684 0013424  83.1430 277.1320 14.98377039166147
0 LEMUR 2 REMY-COLTON
1 43884U 18111J   22024.10107232  .00002630  00000-0  22516-3 0  9995
2 43884  97.6854 294.4658 0013430  82.5402 277.7346 14.98378020166177
0 LEMUR 2 REMY-COLTON
1 43884U 18111J   22024.43497406  .00002647  00000-0  22651-3 0  9994
2 43884  97.6854 294.7947 0013430  81.4900 278.7844 14.98379867166222
0 LEMUR 2 REMY-COLTON
1 43884U 18111J   22024.56853453  .00002544  00000-0  21794-3 0  9999
2 43884  97.6854 294.9263 0013427  81.0820 279.1922 14.98380406166243
0 LEMUR 2 REMY-COLTON
1 43884U 18111J   22024.76887516  .00002508  00000-0  21488-3 0  9998
2 43884  97.6855 295.1237 0013424  80.4533 279.8205 14.98381554166278
0 LEMUR 2 REMY-COLTON
1 43884U 18111J   22024.90243539  .00002380  00000-0  20418-3 0  9995
2 43884  97.6855 295.2553 0013424  80.0533 280.2204 14.98381970166295
0 LEMUR 2 REMY-COLTON
1 43884U 18111J   22025.10277582  .00002315  00000-0  19872-3 0  9993
2 43884  97.6855 295.4526 0013423  79.4416 280.8318 14.98382925166325
0 LEMUR 2 REMY-COLTON
1 43884U 18111J   22025.43667624  .00002516  00000-0  21559-3 0  9997
2 43884  97.6856 295.7815 0013414  78.4051 281.8677 14.98385347166379
0 LEMUR 2 REMY-COLTON
1 43884U 18111J   22025.57023588  .00002642  00000-0  22612-3 0  9998
2 43884  97.6856 295.9131 0013412  77.9947 282.2778 14.98386719166391
0 LEMUR 2 REMY-COLTON
1 43884U 18111J   22025.77057566  .00002583  00000-0  22111-3 0  9991
2 43884  97.6856 296.1105 0013409  77.3599 282.9122 14.98387841166429
0 LEMUR 2 REMY-COLTON
1 43884U 18111J   22025.90413544  .00002754  00000-0  23544-3 0  9999
2 43884  97.6857 296.2420 0013410  76.9478 283.3241 14.98389075166444
0 LEMUR 2 REMY-COLTON
1 43884U 18111J   22026.10447493  .00002740  00000-0  23427-3 0  9997
2 43884  97.6857 296.4394 0013409  76.3445 283.9270 14.98390250166470
0 LEMUR 2 REMY-COLTON
1 43884U 18111J   22026.43837371  .00002564  00000-0  21956-3 0  9990
2 43884  97.6857 296.7683 0013399  75.2738 284.9969 14.98391711166520
0 LEMUR 2 REMY-COLTON
1 43884U 18111J   22026.57193300  .00002597  00000-0  22228-3 0  9991
2 43884  97.6858 296.8999 0013390  74.8617 285.4086 14.98392609166549
0 LEMUR 2 REMY-COLTON
1 43884U 18111J   22026.77227191  .00002586  00000-0  22132-3 0  9991
2 43884  97.6858 297.0973 0013379  74.2131 286.0565 14.98393812166575
0 LEMUR 2 REMY-COLTON
1 43884U 18111J   22026.90583136  .00002427  00000-0  20803-3 0  9997
2 43884  97.6859 297.2288 0013377  73.7843 286.4850 14.98394039166594
